SAR-LUPE 2              
1 31797U 07030A   26200.25471701  .00014603  00000+0  22629-3 0  9991
2 31797  98.1065 308.7828 0005186 205.9548 154.1444 15.54142661 61912
SAPPHIRE                
1 39088U 13009C   26200.30037075  .00000027  00000+0  24223-4 0  9991
2 39088  98.4278  18.9961 0011830 148.3017 211.8883 14.35248165701186
PRAETORIAN SDA_602      
1 65565U 25203A   26199.90563398  .00000066  00000+0  48407-4 0  9997
2 65565  81.3048 341.4017 0007128 109.1553 251.0376 13.83888338 43087
PRAETORIAN SDA_603      
1 65566U 25203B   26199.93372159  .00000143  00000+0  11762-3 0  9993
2 65566  81.3050 341.2978 0010752 105.5235 254.7109 13.83962139 43096
PRAETORIAN SDA_604      
1 65567U 25203C   26200.11843634  .00000064  00000+0  48015-4 0  9992
2 65567  81.3071 341.5883 0006641 112.4985 247.6875 13.83050502 43092
PRAETORIAN SDA_605      
1 65568U 25203D   26199.86069338  .00000067  00000+0  49774-4 0  9999
2 65568  81.3035 341.4648 0009365 104.5942 255.6254 13.83200483 43075
PRAETORIAN SDA_606      
1 65569U 25203E   26199.91820318  .00000034  00000+0  19686-4 0  9992
2 65569  81.3072 341.6512 0007239 107.6581 252.5366 13.83200193 43078
PRAETORIAN SDA_607      
1 65570U 25203F   26200.12397943  .00000095  00000+0  75219-4 0  9994
2 65570  81.3055 341.0771 0010053 105.1873 255.0396 13.83758297 43127
PRAETORIAN SDA_608      
1 65571U 25203G   26200.10633031  .00000054  00000+0  38088-4 0  9992
2 65571  81.3025 341.2553 0007142 111.1265 249.0655 13.83819761 43105
PRAETORIAN SDA_609      
1 65572U 25203H   26199.88535382  .00000131  00000+0  10675-3 0  9992
2 65572  81.3069 341.4369 0007952 106.2050 253.9982 13.84213026 43084
PRAETORIAN SDA_610      
1 65573U 25203J   26200.08905039  .00000076  00000+0  57933-4 0  9995
2 65573  81.3026 341.2362 0007870 110.6432 249.5569 13.83528666 43104
PRAETORIAN SDA_611      
1 65574U 25203K   26199.88158372  .00000235  00000+0  20346-3 0  9995
2 65574  81.3034 341.6119 0006767 115.6619 244.5237 13.83311149 43062
PRAETORIAN SDA_612      
1 65575U 25203L   26200.12062175 -.00003015  00000+0 -26761-2 0  9998
2 65575  81.3087 340.8986 0010377 105.4099 254.8206 13.85061532 43133
PRAETORIAN SDA_613      
1 65576U 25203M   26199.90078069  .00000061  00000+0  45506-4 0  9997
2 65576  81.3017 341.6159 0006820 106.6787 253.5118 13.82768076 43067
PRAETORIAN SDA_614      
1 65577U 25203N   26200.11581623  .00000047  00000+0  31196-4 0  9993
2 65577  81.3033 340.9891 0008274 104.1146 256.0932 13.84778839 43138
PRAETORIAN SDA_615      
1 65578U 25203P   26199.88374469  .00000158  00000+0  12998-3 0  9994
2 65578  81.3042 341.1881 0010115 105.0119 255.2158 13.84438439 43093
PRAETORIAN SDA_616      
1 65579U 25203Q   26200.09873664  .00000135  00000+0  11228-3 0  9992
2 65579  81.3082 341.5778 0006667 113.0905 247.0954 13.83270258 43091
PRAETORIAN SDA_617      
1 65580U 25203R   26199.90604902  .00000058  00000+0  41823-4 0  9997
2 65580  81.3055 341.5840 0008514 104.8888 255.3212 13.83152501 43071
PRAETORIAN SDA_618      
1 65581U 25203S   26200.14078552  .00000106  00000+0  84447-4 0  9996
2 65581  81.3040 340.8823 0010980 108.1213 252.1141 13.84226127 43138
PRAETORIAN SDA_619      
1 65582U 25203T   26200.11684638  .00029480  00000+0  26376-1 0  9992
2 65582  81.3088 341.2304 0008953 108.6324 251.5806 13.84113732 43740
PRAETORIAN SDA_620      
1 65583U 25203U   26199.86454072  .00000076  00000+0  58071-4 0  9999
2 65583  81.3048 341.5068 0008631 102.3917 257.8206 13.83207790 43075
PRAETORIAN SDA_621      
1 65584U 25203V   26200.11892936  .00000063  00000+0  46285-4 0  9996
2 65584  81.3038 341.1666 0008525  99.6814 260.5306 13.83804218 43116
PRAETORIAN SDA_601      
1 65585U 25203W   26200.32118951  .00000076  00000+0  58691-4 0  9996
2 65585  81.3066 341.3124 0006688 115.7066 244.4781 13.83170353 43121
VICTUS HAZE PUMA        
1 69646U 26142A   26200.25832431  .00001791  00000+0  82930-4 0  9997
2 69646  97.4459  97.5147 0026471 252.2212 107.6135 15.21137439  4542
