OBJECT_NAME,OBJECT_ID,EPOCH,MEAN_MOTION,ECCENTRICITY,INCLINATION,RA_OF_ASC_NODE,ARG_OF_PERICENTER,MEAN_ANOMALY,EPHEMERIS_TYPE,CLASSIFICATION_TYPE,NORAD_CAT_ID,ELEMENT_SET_NO,REV_AT_EPOCH,BSTAR,MEAN_MOTION_DOT,MEAN_MOTION_DDOT
SAR-LUPE 2,2007-030A,2026-07-19T06:06:47.549664,15.54142661,.0005186,98.1065,308.7828,205.9548,154.1444,0,U,31797,999,6191,.22628616E-3,.14603E-3,0
SAPPHIRE,2013-009C,2026-07-19T07:12:32.032800,14.35248165,.00118307,98.4278,18.9961,148.3017,211.8883,0,U,39088,999,70118,.24222832E-4,.27E-6,0
PRAETORIAN SDA_602,2025-203A,2026-07-18T21:44:06.775872,13.83888338,.00071288,81.3048,341.4017,109.1553,251.0376,0,U,65565,999,4308,.48406571E-4,.66E-6,0
PRAETORIAN SDA_603,2025-203B,2026-07-18T22:24:33.545376,13.83962139,.00107526,81.3050,341.2978,105.5235,254.7109,0,U,65566,999,4309,.11761933E-3,.143E-5,0
PRAETORIAN SDA_604,2025-203C,2026-07-19T02:50:32.899776,13.83050502,.00066413,81.3071,341.5883,112.4985,247.6875,0,U,65567,999,4309,.48014696E-4,.64E-6,0
PRAETORIAN SDA_605,2025-203D,2026-07-18T20:39:23.908032,13.83200483,.00093654,81.3035,341.4648,104.5942,255.6254,0,U,65568,999,4307,.49773628E-4,.67E-6,0
PRAETORIAN SDA_606,2025-203E,2026-07-18T22:02:12.754752,13.83200193,.00072399,81.3072,341.6512,107.6581,252.5366,0,U,65569,999,4307,.19685616E-4,.34E-6,0
PRAETORIAN SDA_607,2025-203F,2026-07-19T02:58:31.822752,13.83758297,.00100535,81.3055,341.0771,105.1873,255.0396,0,U,65570,999,4312,.7521851E-4,.95E-6,0
PRAETORIAN SDA_608,2025-203G,2026-07-19T02:33:06.938784,13.83819761,.00071423,81.3025,341.2553,111.1265,249.0655,0,U,65571,999,4310,.38088156E-4,.54E-6,0
PRAETORIAN SDA_609,2025-203H,2026-07-18T21:14:54.570048,13.84213026,.00079523,81.3069,341.4369,106.2050,253.9982,0,U,65572,999,4308,.10675159E-3,.131E-5,0
PRAETORIAN SDA_610,2025-203J,2026-07-19T02:08:13.953696,13.83528666,.00078706,81.3026,341.2362,110.6432,249.5569,0,U,65573,999,4310,.57932925E-4,.76E-6,0
PRAETORIAN SDA_611,2025-203K,2026-07-18T21:09:28.833408,13.83311149,.0006767,81.3034,341.6119,115.6619,244.5237,0,U,65574,999,4306,.20346186E-3,.235E-5,0
PRAETORIAN SDA_612,2025-203L,2026-07-19T02:53:41.719200,13.85061532,.00103774,81.3087,340.8986,105.4099,254.8206,0,U,65575,999,4313,-.26760904E-2,-.3015E-4,0
PRAETORIAN SDA_613,2025-203M,2026-07-18T21:37:07.451616,13.82768076,.00068208,81.3017,341.6159,106.6787,253.5118,0,U,65576,999,4306,.45505835E-4,.61E-6,0
PRAETORIAN SDA_614,2025-203N,2026-07-19T02:46:46.522272,13.84778839,.00082747,81.3033,340.9891,104.1146,256.0932,0,U,65577,999,4313,.31196187E-4,.47E-6,0
PRAETORIAN SDA_615,2025-203P,2026-07-18T21:12:35.541216,13.84438439,.00101152,81.3042,341.1881,105.0119,255.2158,0,U,65578,999,4309,.12998352E-3,.158E-5,0
PRAETORIAN SDA_616,2025-203Q,2026-07-19T02:22:10.845696,13.83270258,.00066679,81.3082,341.5778,113.0905,247.0954,0,U,65579,999,4309,.11227753E-3,.135E-5,0
PRAETORIAN SDA_617,2025-203R,2026-07-18T21:44:42.635328,13.83152501,.00085143,81.3055,341.5840,104.8888,255.3212,0,U,65580,999,4307,.4182304E-4,.58E-6,0
PRAETORIAN SDA_618,2025-203S,2026-07-19T03:22:43.868928,13.84226127,.00109805,81.3040,340.8823,108.1213,252.1141,0,U,65581,999,4313,.84447355E-4,.106E-5,0
PRAETORIAN SDA_619,2025-203T,2026-07-19T02:48:15.527232,13.84113732,.00089537,81.3088,341.2304,108.6324,251.5806,0,U,65582,999,4374,.2637583E-1,.2948E-3,0
PRAETORIAN SDA_620,2025-203U,2026-07-18T20:44:56.318208,13.83207790,.00086315,81.3048,341.5068,102.3917,257.8206,0,U,65583,999,4307,.58071385E-4,.76E-6,0
PRAETORIAN SDA_621,2025-203V,2026-07-19T02:51:15.496704,13.83804218,.00085255,81.3038,341.1666,99.6814,260.5306,0,U,65584,999,4311,.46284678E-4,.63E-6,0
PRAETORIAN SDA_601,2025-203W,2026-07-19T07:42:30.773664,13.83170353,.00066887,81.3066,341.3124,115.7066,244.4781,0,U,65585,999,4312,.58691388E-4,.76E-6,0
VICTUS HAZE PUMA,2026-142A,2026-07-19T06:11:59.220384,15.21137439,.0026471,97.4459,97.5147,252.2212,107.6135,0,U,69646,999,454,.82930199E-4,.1791E-4,0
